start=new Date('2022-04-24T00:00:00.000Z').valueOf();
sats=[{"ELEMENT_SET_NO":"999","FILE":"3412883","OBJECT_TYPE":"PAYLOAD","PERIAPSIS":"546.281","EPHEMERIS_TYPE":"0","RCS_SIZE":"LARGE","PERIOD":"95.593","ARG_OF_PERICENTER":"49.9177","MEAN_ANOMALY":"310.1934","MEAN_MOTION_DOT":"-0.00003838","INCLINATION":"53.0506","TIME_SYSTEM":"UTC","MEAN_MOTION":"15.06389159","EPOCH":"2022-04-23T12:32:53.362176","REF_FRAME":"TEME","TLE_LINE1":"1 44967U 20001BF  22113.52283984 -.00003838  00000-0 -23898-3 0  9990","REV_AT_EPOCH":"12696","SEMIMAJOR_AXIS":"6925.382","OBJECT_ID":"2020-001BF","NORAD_CAT_ID":"44967","LAUNCH_DATE":"2020-01-07","CLASSIFICATION_TYPE":"U","BSTAR":"-0.00023898000000","DECAY_DATE":null,"RA_OF_ASC_NODE":"184.0443","MEAN_MOTION_DDOT":"0.0000000000000","CENTER_NAME":"EARTH","SITE":"AFETR","ECCENTRICITY":"0.00013940","GP_ID":"201879934","APOAPSIS":"548.212","COUNTRY_CODE":"US","TLE_LINE2":"2 44967  53.0506 184.0443 0001394  49.9177 310.1934 15.06389159126961","OBJECT_NAME":"STARLINK-1089","MEAN_ELEMENT_THEORY":"SGP4"},{"CENTER_NAME":"EARTH","SITE":"AFETR","RA_OF_ASC_NODE":"184.3589","DECAY_DATE":null,"BSTAR":"0.00000004682800","CLASSIFICATION_TYPE":"U","MEAN_MOTION_DDOT":"0.0000000000000","OBJECT_ID":"2020-001BG","LAUNCH_DATE":"2020-01-07","NORAD_CAT_ID":"44968","REV_AT_EPOCH":"12695","SEMIMAJOR_AXIS":"6925.382","APOAPSIS":"548.358","COUNTRY_CODE":"US","OBJECT_NAME":"STARLINK-1090","MEAN_ELEMENT_THEORY":"SGP4","TLE_LINE2":"2 44968  53.0551 184.3589 0001605  53.5500 306.5636 15.06389138126956","ECCENTRICITY":"0.00016050","GP_ID":"201878184","ARG_OF_PERICENTER":"53.5500","MEAN_ANOMALY":"306.5636","MEAN_MOTION_DOT":"-0.00000281","RCS_SIZE":"LARGE","PERIOD":"95.593","EPHEMERIS_TYPE":"0","PERIAPSIS":"546.135","ELEMENT_SET_NO":"999","FILE":"3412883","OBJECT_TYPE":"PAYLOAD","REF_FRAME":"TEME","TLE_LINE1":"1 44968U 20001BG  22113.45281558 -.00000281  00000-0  46828-7 0  9998","EPOCH":"2022-04-23T10:52:03.266112","MEAN_MOTION":"15.06389138","INCLINATION":"53.0551","TIME_SYSTEM":"UTC"},{"EPOCH":"2022-04-23T12:16:57.645120","REF_FRAME":"TEME","TLE_LINE1":"1 44969U 20001BH  22113.51177830 -.00000298  00000-0 -10771-5 0  9998","INCLINATION":"53.0539","TIME_SYSTEM":"UTC","MEAN_MOTION":"15.06398718","RCS_SIZE":"LARGE","PERIOD":"95.592","ARG_OF_PERICENTER":"67.8906","MEAN_ANOMALY":"292.2247","MEAN_MOTION_DOT":"-0.00000298","ELEMENT_SET_NO":"999","FILE":"3412883","OBJECT_TYPE":"PAYLOAD","EPHEMERIS_TYPE":"0","PERIAPSIS":"546.148","COUNTRY_CODE":"US","APOAPSIS":"548.287","OBJECT_NAME":"STARLINK-1092","MEAN_ELEMENT_THEORY":"SGP4","TLE_LINE2":"2 44969  53.0539 184.0907 0001544  67.8906 292.2247 15.06398718126957","ECCENTRICITY":"0.00015440","GP_ID":"201878434","RA_OF_ASC_NODE":"184.0907","DECAY_DATE":null,"BSTAR":"-0.00000107710000","CLASSIFICATION_TYPE":"U","MEAN_MOTION_DDOT":"0.0000000000000","CENTER_NAME":"EARTH","SITE":"AFETR","REV_AT_EPOCH":"12695","SEMIMAJOR_AXIS":"6925.352","OBJECT_ID":"2020-001BH","LAUNCH_DATE":"2020-01-07","NORAD_CAT_ID":"44969"},{"GP_ID":"201879684","ECCENTRICITY":"0.00015600","APOAPSIS":"548.327","COUNTRY_CODE":"US","MEAN_ELEMENT_THEORY":"SGP4","OBJECT_NAME":"STARLINK-1093","TLE_LINE2":"2 44970  53.0545 184.1875 0001560  72.8108 287.3051 15.06389051126946","REV_AT_EPOCH":"12694","SEMIMAJOR_AXIS":"6925.382","OBJECT_ID":"2020-001BJ","NORAD_CAT_ID":"44970","LAUNCH_DATE":"2020-01-07","DECAY_DATE":null,"RA_OF_ASC_NODE":"184.1875","BSTAR":"-0.00001122700000","CLASSIFICATION_TYPE":"U","MEAN_MOTION_DDOT":"0.0000000000000","CENTER_NAME":"EARTH","SITE":"AFETR","INCLINATION":"53.0545","TIME_SYSTEM":"UTC","MEAN_MOTION":"15.06389051","EPOCH":"2022-04-23T11:45:07.812864","REF_FRAME":"TEME","TLE_LINE1":"1 44970U 20001BJ  22113.48967376 -.00000449  00000-0 -11227-4 0  9992","ELEMENT_SET_NO":"999","FILE":"3412883","OBJECT_TYPE":"PAYLOAD","EPHEMERIS_TYPE":"0","PERIAPSIS":"546.167","RCS_SIZE":"LARGE","PERIOD":"95.593","ARG_OF_PERICENTER":"72.8108","MEAN_ANOMALY":"287.3051","MEAN_MOTION_DOT":"-0.00000449"},{"OBJECT_NAME":"STARLINK-1107","MEAN_ELEMENT_THEORY":"SGP4","TLE_LINE2":"2 44972  53.0562 184.3233 0001589  60.0863 300.0284 15.06394015126953","COUNTRY_CODE":"US","APOAPSIS":"548.332","GP_ID":"201879435","ECCENTRICITY":"0.00015890","MEAN_MOTION_DDOT":"0.0000000000000","RA_OF_ASC_NODE":"184.3233","DECAY_DATE":null,"BSTAR":"0.00011406000000","CLASSIFICATION_TYPE":"U","SITE":"AFETR","CENTER_NAME":"EARTH","SEMIMAJOR_AXIS":"6925.367","REV_AT_EPOCH":"12695","NORAD_CAT_ID":"44972","LAUNCH_DATE":"2020-01-07","OBJECT_ID":"2020-001BL","EPOCH":"2022-04-23T11:02:39.754176","TLE_LINE1":"1 44972U 20001BL  22113.46018234  .00001418  00000-0  11406-3 0  9995","REF_FRAME":"TEME","TIME_SYSTEM":"UTC","INCLINATION":"53.0562","MEAN_MOTION":"15.06394015","PERIOD":"95.593","RCS_SIZE":"LARGE","MEAN_MOTION_DOT":"0.00001418","MEAN_ANOMALY":"300.0284","ARG_OF_PERICENTER":"60.0863","OBJECT_TYPE":"PAYLOAD","ELEMENT_SET_NO":"999","FILE":"3412883","EPHEMERIS_TYPE":"0","PERIAPSIS":"546.131"},{"PERIOD":"95.593","RCS_SIZE":"LARGE","MEAN_MOTION_DOT":"0.00000478","MEAN_ANOMALY":"309.7733","ARG_OF_PERICENTER":"50.3397","OBJECT_TYPE":"PAYLOAD","FILE":"3412883","ELEMENT_SET_NO":"999","PERIAPSIS":"546.143","EPHEMERIS_TYPE":"0","EPOCH":"2022-04-23T10:30:49.488192","TLE_LINE1":"1 44973U 20001BM  22113.43807278  .00000478  00000-0  50992-4 0  9996","REF_FRAME":"TEME","TIME_SYSTEM":"UTC","INCLINATION":"53.0530","MEAN_MOTION":"15.06388691","MEAN_MOTION_DDOT":"0.0000000000000","CLASSIFICATION_TYPE":"U","BSTAR":"0.00005099200000","RA_OF_ASC_NODE":"184.4269","DECAY_DATE":null,"SITE":"AFETR","CENTER_NAME":"EARTH","SEMIMAJOR_AXIS":"6925.383","REV_AT_EPOCH":"12694","NORAD_CAT_ID":"44973","LAUNCH_DATE":"2020-01-07","OBJECT_ID":"2020-001BM","TLE_LINE2":"2 44973  53.0530 184.4269 0001596  50.3397 309.7733 15.06388691126948","MEAN_ELEMENT_THEORY":"SGP4","OBJECT_NAME":"STARLINK-1115","COUNTRY_CODE":"US","APOAPSIS":"548.354","ECCENTRICITY":"0.00015960","GP_ID":"201878684"},{"COUNTRY_CODE":"US","APOAPSIS":"548.427","TLE_LINE2":"2 45044  53.0543 143.9488 0001761  51.8351 308.2797 15.06401966123295","MEAN_ELEMENT_THEORY":"SGP4","OBJECT_NAME":"STARLINK-1132","GP_ID":"201878191","ECCENTRICITY":"0.00017610","CENTER_NAME":"EARTH","SITE":"AFETR","BSTAR":"0.00000829610000","CLASSIFICATION_TYPE":"U","RA_OF_ASC_NODE":"143.9488","DECAY_DATE":null,"MEAN_MOTION_DDOT":"0.0000000000000","OBJECT_ID":"2020-006A","NORAD_CAT_ID":"45044","LAUNCH_DATE":"2020-01-29","REV_AT_EPOCH":"12329","SEMIMAJOR_AXIS":"6925.343","REF_FRAME":"TEME","TLE_LINE1":"1 45044U 20006A   22113.54495634 -.00000158  00000-0  82961-5 0  9990","EPOCH":"2022-04-23T13:04:44.227776","MEAN_MOTION":"15.06401966","INCLINATION":"53.0543","TIME_SYSTEM":"UTC","ARG_OF_PERICENTER":"51.8351","MEAN_MOTION_DOT":"-0.00000158","MEAN_ANOMALY":"308.2797","RCS_SIZE":"LARGE","PERIOD":"95.592","PERIAPSIS":"545.988","EPHEMERIS_TYPE":"0","ELEMENT_SET_NO":"999","FILE":"3412883","OBJECT_TYPE":"PAYLOAD"},{"MEAN_MOTION_DDOT":"0.0000000000000","DECAY_DATE":null,"RA_OF_ASC_NODE":"164.2886","BSTAR":"0.00002562200000","CLASSIFICATION_TYPE":"U","SITE":"AFETR","CENTER_NAME":"EARTH","SEMIMAJOR_AXIS":"6925.356","REV_AT_EPOCH":"12300","NORAD_CAT_ID":"45045","LAUNCH_DATE":"2020-01-29","OBJECT_ID":"2020-006B","MEAN_ELEMENT_THEORY":"SGP4","OBJECT_NAME":"STARLINK-1120","TLE_LINE2":"2 45045  53.0538 164.2886 0001679  57.8940 302.2211 15.06397444123005","APOAPSIS":"548.384","COUNTRY_CODE":"US","ECCENTRICITY":"0.00016790","GP_ID":"201878441","PERIOD":"95.592","RCS_SIZE":"LARGE","MEAN_MOTION_DOT":"0.00000100","MEAN_ANOMALY":"302.2211","ARG_OF_PERICENTER":"57.8940","OBJECT_TYPE":"PAYLOAD","ELEMENT_SET_NO":"999","FILE":"3412883","EPHEMERIS_TYPE":"0","PERIAPSIS":"546.059","EPOCH":"2022-04-23T11:10:37.532352","TLE_LINE1":"1 45045U 20006B   22113.46571218  .00000100  00000-0  25622-4 0  9991","REF_FRAME":"TEME","TIME_SYSTEM":"UTC","INCLINATION":"53.0538","MEAN_MOTION":"15.06397444"},{"MEAN_MOTION_DDOT":"0.0000000000000","CLASSIFICATION_TYPE":"U","BSTAR":"0.00120080000000","DECAY_DATE":null,"RA_OF_ASC_NODE":"155.6242","SITE":"AFETR","CENTER_NAME":"EARTH","SEMIMAJOR_AXIS":"6906.862","REV_AT_EPOCH":"12308","NORAD_CAT_ID":"45046","LAUNCH_DATE":"2020-01-29","OBJECT_ID":"2020-006C","TLE_LINE2":"2 45046  52.9943 155.6242 0001954  27.1284 332.9808 15.12451911123088","OBJECT_NAME":"STARLINK-1129","MEAN_ELEMENT_THEORY":"SGP4","APOAPSIS":"530.077","COUNTRY_CODE":"US","ECCENTRICITY":"0.00019540","GP_ID":"201879691","PERIOD":"95.210","RCS_SIZE":"LARGE","MEAN_ANOMALY":"332.9808","MEAN_MOTION_DOT":"0.00020883","ARG_OF_PERICENTER":"27.1284","OBJECT_TYPE":"PAYLOAD","FILE":"3412883","ELEMENT_SET_NO":"999","PERIAPSIS":"527.378","EPHEMERIS_TYPE":"0","EPOCH":"2022-04-23T10:21:25.651296","TLE_LINE1":"1 45046U 20006C   22113.43154689  .00020883  00000-0  12008-2 0  9990","REF_FRAME":"TEME","TIME_SYSTEM":"UTC","INCLINATION":"52.9943","MEAN_MOTION":"15.12451911"},{"EPOCH":"2022-04-23T09:40:23.322144","REF_FRAME":"TEME","TLE_LINE1":"1 45047U 20006D   22113.40304771 -.00002197  00000-0 -12866-3 0  9990","INCLINATION":"53.0530","TIME_SYSTEM":"UTC","MEAN_MOTION":"15.06392599","RCS_SIZE":"LARGE","PERIOD":"95.593","ARG_OF_PERICENTER":"54.7307","MEAN_ANOMALY":"305.3835","MEAN_MOTION_DOT":"-0.00002197","ELEMENT_SET_NO":"999","FILE":"3412883","OBJECT_TYPE":"PAYLOAD","EPHEMERIS_TYPE":"0","PERIAPSIS":"546.096","COUNTRY_CODE":"US","APOAPSIS":"548.376","OBJECT_NAME":"STARLINK-1131","MEAN_ELEMENT_THEORY":"SGP4","TLE_LINE2":"2 45047  53.0530 164.5797 0001646  54.7307 305.3835 15.06392599122999","ECCENTRICITY":"0.00016460","GP_ID":"201879442","RA_OF_ASC_NODE":"164.5797","DECAY_DATE":null,"BSTAR":"-0.00012866000000","CLASSIFICATION_TYPE":"U","MEAN_MOTION_DDOT":"0.0000000000000","CENTER_NAME":"EARTH","SITE":"AFETR","REV_AT_EPOCH":"12299","SEMIMAJOR_AXIS":"6925.371","OBJECT_ID":"2020-006D","NORAD_CAT_ID":"45047","LAUNCH_DATE":"2020-01-29"}];
